<?xml version="1.0" encoding="utf-8"?><gpx creator="Garmin Desktop App" version="1.1" xsi:schemaLocation="http://www.topografix.com/GPX/1/1 http://www.topografix.com/GPX/1/1/gpx.xsd http://www.garmin.com/xmlschemas/WaypointExtension/v1 http://www8.garmin.com/xmlschemas/WaypointExtensionv1.xsd http://www.garmin.com/xmlschemas/TrackPointExtension/v1 http://www.garmin.com/xmlschemas/TrackPointExtensionv1.xsd http://www.garmin.com/xmlschemas/GpxExtensions/v3 http://www8.garmin.com/xmlschemas/GpxExtensionsv3.xsd http://www.garmin.com/xmlschemas/ActivityExtension/v1 http://www8.garmin.com/xmlschemas/ActivityExtensionv1.xsd http://www.garmin.com/xmlschemas/AdventuresExtensions/v1 http://www8.garmin.com/xmlschemas/AdventuresExtensionv1.xsd http://www.garmin.com/xmlschemas/PressureExtension/v1 http://www.garmin.com/xmlschemas/PressureExtensionv1.xsd http://www.garmin.com/xmlschemas/TripExtensions/v1 http://www.garmin.com/xmlschemas/TripExtensionsv1.xsd http://www.garmin.com/xmlschemas/TripMetaDataExtensions/v1 http://www.garmin.com/xmlschemas/TripMetaDataExtensionsv1.xsd http://www.garmin.com/xmlschemas/ViaPointTransportationModeExtensions/v1 http://www.garmin.com/xmlschemas/ViaPointTransportationModeExtensionsv1.xsd http://www.garmin.com/xmlschemas/CreationTimeExtension/v1 http://www.garmin.com/xmlschemas/CreationTimeExtensionsv1.xsd http://www.garmin.com/xmlschemas/AccelerationExtension/v1 http://www.garmin.com/xmlschemas/AccelerationExtensionv1.xsd http://www.garmin.com/xmlschemas/PowerExtension/v1 http://www.garmin.com/xmlschemas/PowerExtensionv1.xsd http://www.garmin.com/xmlschemas/VideoExtension/v1 http://www.garmin.com/xmlschemas/VideoExtensionv1.xsd" xmlns="http://www.topografix.com/GPX/1/1" xmlns:xsi="http://www.w3.org/2001/XMLSchema-instance" xmlns:wptx1="http://www.garmin.com/xmlschemas/WaypointExtension/v1" xmlns:gpxtrx="http://www.garmin.com/xmlschemas/GpxExtensions/v3" xmlns:gpxtpx="http://www.garmin.com/xmlschemas/TrackPointExtension/v1" xmlns:gpxx="http://www.garmin.com/xmlschemas/GpxExtensions/v3" xmlns:trp="http://www.garmin.com/xmlschemas/TripExtensions/v1" xmlns:adv="http://www.garmin.com/xmlschemas/AdventuresExtensions/v1" xmlns:prs="http://www.garmin.com/xmlschemas/PressureExtension/v1" xmlns:tmd="http://www.garmin.com/xmlschemas/TripMetaDataExtensions/v1" xmlns:vptm="http://www.garmin.com/xmlschemas/ViaPointTransportationModeExtensions/v1" xmlns:ctx="http://www.garmin.com/xmlschemas/CreationTimeExtension/v1" xmlns:gpxacc="http://www.garmin.com/xmlschemas/AccelerationExtension/v1" xmlns:gpxpx="http://www.garmin.com/xmlschemas/PowerExtension/v1" xmlns:vidx1="http://www.garmin.com/xmlschemas/VideoExtension/v1">

  <metadata>
    <link href="http://www.garmin.com">
      <text>Garmin International</text>
    </link>
    <time>2025-09-10T20:16:51Z</time>
    <bounds maxlat="27.177020581439137" maxlon="-80.633967434987426" minlat="26.692030839622021" minlon="-81.199183641001582" />
  </metadata>

  <trk>
    <name>East path</name>
    <extensions>
      <gpxx:TrackExtension>
        <gpxx:DisplayColor>DarkGray</gpxx:DisplayColor>
      </gpxx:TrackExtension>
    </extensions>
    <trkseg>
      <trkpt lat="26.802261583507061" lon="-80.695034880191088">
        <ele>0</ele>
      </trkpt>
      <trkpt lat="26.863820292055607" lon="-80.633967434987426">
        <ele>0</ele>
      </trkpt>
      <trkpt lat="27.090770965442061" lon="-80.662438916042447">
        <ele>0</ele>
      </trkpt>
      <trkpt lat="27.151154279708862" lon="-80.701326923444867">
        <ele>0</ele>
      </trkpt>
      <trkpt lat="27.176853530108929" lon="-80.847119567915797">
        <ele>0</ele>
      </trkpt>
    </trkseg>
  </trk>

  <trk>
    <name>Track 065</name>
    <extensions>
      <gpxx:TrackExtension>
        <gpxx:DisplayColor>DarkGray</gpxx:DisplayColor>
      </gpxx:TrackExtension>
    </extensions>
    <trkseg>
      <trkpt lat="26.748355384916067" lon="-80.895032621920109" />
      <trkpt lat="26.745929829776287" lon="-80.693689417093992" />
      <trkpt lat="26.745929829776287" lon="-80.693689417093992" />
    </trkseg>
  </trk>

  <trk>
    <name>Track 066</name>
    <extensions>
      <gpxx:TrackExtension>
        <gpxx:DisplayColor>DarkGray</gpxx:DisplayColor>
      </gpxx:TrackExtension>
    </extensions>
    <trkseg>
      <trkpt lat="26.720058247447014" lon="-80.844916049391031" />
      <trkpt lat="26.718441294506192" lon="-80.694676302373409" />
      <trkpt lat="26.718441294506192" lon="-80.694676302373409" />
    </trkseg>
  </trk>

  <trk>
    <name>Track 067</name>
    <extensions>
      <gpxx:TrackExtension>
        <gpxx:DisplayColor>DarkGray</gpxx:DisplayColor>
      </gpxx:TrackExtension>
    </extensions>
    <trkseg>
      <trkpt lat="26.693288460373878" lon="-80.774292396381497" />
      <trkpt lat="26.692030839622021" lon="-80.696869594976306" />
      <trkpt lat="26.692030839622021" lon="-80.696869594976306" />
    </trkseg>
  </trk>

  <trk>
    <name>Track 068</name>
    <extensions>
      <gpxx:TrackExtension>
        <gpxx:DisplayColor>DarkGray</gpxx:DisplayColor>
      </gpxx:TrackExtension>
    </extensions>
    <trkseg>
      <trkpt lat="26.803421638906002" lon="-80.977828642353415" />
      <trkpt lat="26.802972452715039" lon="-81.175772231072187" />
      <trkpt lat="26.802972452715039" lon="-81.175772231072187" />
    </trkseg>
  </trk>

  <trk>
    <name>Track 069</name>
    <extensions>
      <gpxx:TrackExtension>
        <gpxx:DisplayColor>DarkGray</gpxx:DisplayColor>
      </gpxx:TrackExtension>
    </extensions>
    <trkseg>
      <trkpt lat="26.692087668925524" lon="-80.697220712900162" />
      <trkpt lat="26.692087668925524" lon="-80.696014473214746" />
      <trkpt lat="26.692177439108491" lon="-80.694917785003781" />
      <trkpt lat="26.692626625299454" lon="-80.693930815905333" />
      <trkpt lat="26.693075811490417" lon="-80.6928342115134" />
      <trkpt lat="26.693614767864347" lon="-80.691956877708435" />
      <trkpt lat="26.694243578240275" lon="-80.69107954390347" />
      <trkpt lat="26.694782618433237" lon="-80.690202210098505" />
      <trkpt lat="26.695591052994132" lon="-80.689324960112572" />
      <trkpt lat="26.69630971737206" lon="-80.68855726160109" />
      <trkpt lat="26.697208005934954" lon="-80.687680011615157" />
      <trkpt lat="26.697926670312881" lon="-80.68702194839716" />
      <trkpt lat="26.698825042694807" lon="-80.68625433370471" />
      <trkpt lat="26.699723331257701" lon="-80.685705989599228" />
      <trkpt lat="26.700621619820595" lon="-80.685376999899745" />
      <trkpt lat="26.701609762385488" lon="-80.684938374906778" />
      <trkpt lat="26.702508134767413" lon="-80.684719020500779" />
      <trkpt lat="26.703496277332306" lon="-80.684609385207295" />
      <trkpt lat="26.704574190080166" lon="-80.684390030801296" />
      <trkpt lat="26.705472562462091" lon="-80.684280395507813" />
      <trkpt lat="26.70664032921195" lon="-80.684280395507813" />
      <trkpt lat="26.707628471776843" lon="-80.684280395507813" />
      <trkpt lat="26.708526844158769" lon="-80.684280395507813" />
      <trkpt lat="26.709604756906629" lon="-80.684280395507813" />
      <trkpt lat="26.710503129288554" lon="-80.684609385207295" />
      <trkpt lat="26.711401417851448" lon="-80.684938374906778" />
      <trkpt lat="26.712299706414342" lon="-80.685267364606261" />
      <trkpt lat="26.713108224794269" lon="-80.685815708711743" />
      <trkpt lat="26.713916743174195" lon="-80.686363968998194" />
      <trkpt lat="26.714635323733091" lon="-80.687131667509675" />
      <trkpt lat="26.715443842113018" lon="-80.687789646908641" />
      <trkpt lat="26.716072652488947" lon="-80.688666980713606" />
      <trkpt lat="26.71652183867991" lon="-80.689653949812055" />
      <trkpt lat="26.716970941051841" lon="-80.690640918910503" />
      <trkpt lat="26.717420127242804" lon="-80.691627888008952" />
      <trkpt lat="26.717959083616734" lon="-80.692614857107401" />
      <trkpt lat="26.718318415805697" lon="-80.693711461499333" />
      <trkpt lat="26.718587977811694" lon="-80.694808149710298" />
    </trkseg>
  </trk>

  <trk>
    <name>Track 070</name>
    <extensions>
      <gpxx:TrackExtension>
        <gpxx:DisplayColor>DarkGray</gpxx:DisplayColor>
      </gpxx:TrackExtension>
    </extensions>
    <trkseg>
      <trkpt lat="26.720112562179565" lon="-80.844565434381366" />
      <trkpt lat="26.719708302989602" lon="-80.890788864344358" />
      <trkpt lat="26.719438824802637" lon="-80.892433812841773" />
      <trkpt lat="26.71930412761867" lon="-80.894078761339188" />
      <trkpt lat="26.71930412761867" lon="-80.89588824659586" />
      <trkpt lat="26.719438824802637" lon="-80.89819117449224" />
      <trkpt lat="26.719573605805635" lon="-80.899836122989655" />
      <trkpt lat="26.719977864995599" lon="-80.901481071487069" />
      <trkpt lat="26.720651602372527" lon="-80.903290556743741" />
      <trkpt lat="26.721325339749455" lon="-80.904770968481898" />
      <trkpt lat="26.721729515120387" lon="-80.906416000798345" />
      <trkpt lat="26.722403252497315" lon="-80.907896412536502" />
      <trkpt lat="26.722807511687279" lon="-80.909705897793174" />
      <trkpt lat="26.723211770877242" lon="-80.911515383049846" />
      <trkpt lat="26.72388550825417" lon="-80.912995794788003" />
      <trkpt lat="26.724963504821062" lon="-80.914147300645709" />
      <trkpt lat="26.726310979574919" lon="-80.915298722684383" />
      <trkpt lat="26.727523673325777" lon="-80.916450228542089" />
      <trkpt lat="26.728736367076635" lon="-80.917437197640538" />
      <trkpt lat="26.73021862283349" lon="-80.918259713798761" />
      <trkpt lat="26.731566097587347" lon="-80.918588703498244" />
      <trkpt lat="26.732913572341204" lon="-80.91875315643847" />
      <trkpt lat="26.73426104709506" lon="-80.919082146137953" />
      <trkpt lat="26.735743302851915" lon="-80.919082146137953" />
      <trkpt lat="26.737225474789739" lon="-80.919082146137953" />
      <trkpt lat="26.738572949543595" lon="-80.918259713798761" />
      <trkpt lat="26.739785643294454" lon="-80.917437197640538" />
      <trkpt lat="26.740998420864344" lon="-80.916450228542089" />
      <trkpt lat="26.7423458956182" lon="-80.915463259443641" />
      <trkpt lat="26.743289111182094" lon="-80.914147300645709" />
      <trkpt lat="26.74409762956202" lon="-80.91266680508852" />
      <trkpt lat="26.744771366938949" lon="-80.911186309531331" />
      <trkpt lat="26.745579801499844" lon="-80.909541361033916" />
      <trkpt lat="26.746118841692805" lon="-80.907896412536502" />
      <trkpt lat="26.746523017063737" lon="-80.906251464039087" />
      <trkpt lat="26.747062057256699" lon="-80.904606515541673" />
      <trkpt lat="26.747466316446662" lon="-80.902961567044258" />
      <trkpt lat="26.747870491817594" lon="-80.901152081787586" />
      <trkpt lat="26.74814005382359" lon="-80.899342596530914" />
      <trkpt lat="26.748274751007557" lon="-80.8976976480335" />
      <trkpt lat="26.748544229194522" lon="-80.896052699536085" />
      <trkpt lat="26.74867901019752" lon="-80.894407751038671" />
    </trkseg>
  </trk>

  <trk>
    <name>Track 071</name>
    <extensions>
      <gpxx:TrackExtension>
        <gpxx:DisplayColor>DarkGray</gpxx:DisplayColor>
      </gpxx:TrackExtension>
    </extensions>
    <trkseg>
      <trkpt lat="26.775673516094685" lon="-80.692461468279362" />
      <trkpt lat="26.775673516094685" lon="-80.691255144774914" />
      <trkpt lat="26.775673516094685" lon="-80.690048821270466" />
      <trkpt lat="26.775673516094685" lon="-80.688732862472534" />
      <trkpt lat="26.775583662092686" lon="-80.687416903674603" />
      <trkpt lat="26.775403954088688" lon="-80.686210580170155" />
      <trkpt lat="26.775044621899724" lon="-80.685113975778222" />
      <trkpt lat="26.774775143712759" lon="-80.684017287567258" />
      <trkpt lat="26.774326041340828" lon="-80.683030318468809" />
      <trkpt lat="26.773697147145867" lon="-80.68204334937036" />
      <trkpt lat="26.773068336769938" lon="-80.681166015565395" />
      <trkpt lat="26.772349672392011" lon="-80.680179046466947" />
      <trkpt lat="26.771720862016082" lon="-80.679301796481013" />
      <trkpt lat="26.771002197638154" lon="-80.678424462676048" />
      <trkpt lat="26.770193763077259" lon="-80.677876118570566" />
      <trkpt lat="26.769385244697332" lon="-80.6772181391716" />
      <trkpt lat="26.768486956134439" lon="-80.676669795066118" />
      <trkpt lat="26.767588667571545" lon="-80.676121534779668" />
      <trkpt lat="26.766690295189619" lon="-80.675792545080185" />
      <trkpt lat="26.765792006626725" lon="-80.675353836268187" />
      <trkpt lat="26.764893718063831" lon="-80.675134565681219" />
      <trkpt lat="26.763995345681906" lon="-80.67491521127522" />
      <trkpt lat="26.763007203117013" lon="-80.674695856869221" />
      <trkpt lat="26.76201906055212" lon="-80.674695856869221" />
      <trkpt lat="26.761030917987227" lon="-80.674586221575737" />
      <trkpt lat="26.760042775422335" lon="-80.674586221575737" />
      <trkpt lat="26.759054632857442" lon="-80.674586221575737" />
      <trkpt lat="26.75797663629055" lon="-80.674586221575737" />
      <trkpt lat="26.757078347727656" lon="-80.674805575981736" />
      <trkpt lat="26.756180059164762" lon="-80.675134565681219" />
      <trkpt lat="26.755281686782837" lon="-80.675573190674186" />
      <trkpt lat="26.754293544217944" lon="-80.676121534779668" />
      <trkpt lat="26.753485109657049" lon="-80.676779514178634" />
      <trkpt lat="26.752676591277122" lon="-80.6774374935776" />
      <trkpt lat="26.751868156716228" lon="-80.678095472976565" />
      <trkpt lat="26.7511494923383" lon="-80.678753452375531" />
      <trkpt lat="26.750520681962371" lon="-80.679630786180496" />
      <trkpt lat="26.749891871586442" lon="-80.68050803616643" />
      <trkpt lat="26.74935283139348" lon="-80.681385369971395" />
      <trkpt lat="26.74881387501955" lon="-80.68226270377636" />
      <trkpt lat="26.748274834826589" lon="-80.683249672874808" />
      <trkpt lat="26.747825732454658" lon="-80.684236641973257" />
      <trkpt lat="26.747556170448661" lon="-80.68533324636519" />
      <trkpt lat="26.747196922078729" lon="-80.686429934576154" />
      <trkpt lat="26.746747735887766" lon="-80.687526538968086" />
      <trkpt lat="26.746388403698802" lon="-80.68862322717905" />
      <trkpt lat="26.746388403698802" lon="-80.689829550683498" />
      <trkpt lat="26.746298549696803" lon="-80.690926155075431" />
      <trkpt lat="26.746118925511837" lon="-80.692022759467363" />
      <trkpt lat="26.746029071509838" lon="-80.693119447678328" />
      <trkpt lat="26.745849447324872" lon="-80.69421605207026" />
    </trkseg>
  </trk>

  <trk>
    <name>Track 072</name>
    <extensions>
      <gpxx:TrackExtension>
        <gpxx:DisplayColor>DarkGray</gpxx:DisplayColor>
      </gpxx:TrackExtension>
    </extensions>
    <trkseg>
      <trkpt lat="26.777155604213476" lon="-80.941519243642688" />
      <trkpt lat="26.776886126026511" lon="-80.99382902495563" />
      <trkpt lat="26.777694644406438" lon="-80.994706358760595" />
      <trkpt lat="26.778592932969332" lon="-80.995144983753562" />
      <trkpt lat="26.779581075534225" lon="-80.995144983753562" />
      <trkpt lat="26.780479364097118" lon="-80.995144983753562" />
      <trkpt lat="26.781377736479044" lon="-80.994706358760595" />
      <trkpt lat="26.782186171039939" lon="-80.994048379361629" />
      <trkpt lat="26.782904835417867" lon="-80.993390399962664" />
      <trkpt lat="26.783354021608829" lon="-80.992403347045183" />
      <trkpt lat="26.783982831984758" lon="-80.99152609705925" />
      <trkpt lat="26.784432018175721" lon="-80.990539127960801" />
      <trkpt lat="26.784791350364685" lon="-80.989442439749837" />
      <trkpt lat="26.785150598734617" lon="-80.988345835357904" />
      <trkpt lat="26.785509930923581" lon="-80.98724914714694" />
      <trkpt lat="26.785869263112545" lon="-80.986042907461524" />
      <trkpt lat="26.786228595301509" lon="-80.98494621925056" />
      <trkpt lat="26.786587927490473" lon="-80.983849614858627" />
      <trkpt lat="26.786767635494471" lon="-80.982533656060696" />
      <trkpt lat="26.787037113681436" lon="-80.981436967849731" />
      <trkpt lat="26.787306591868401" lon="-80.980230644345284" />
      <trkpt lat="26.787396445870399" lon="-80.979134039953351" />
      <trkpt lat="26.787755778059363" lon="-80.978037435561419" />
      <trkpt lat="26.788115110248327" lon="-80.976940747350454" />
      <trkpt lat="26.788204880431294" lon="-80.975844142958522" />
      <trkpt lat="26.788474442437291" lon="-80.974747454747558" />
      <trkpt lat="26.788564212620258" lon="-80.973650850355625" />
      <trkpt lat="26.788743920624256" lon="-80.972334891557693" />
      <trkpt lat="26.788833690807223" lon="-80.971238203346729" />
      <trkpt lat="26.789013398811221" lon="-80.970141598954797" />
      <trkpt lat="26.789193022996187" lon="-80.969044910743833" />
      <trkpt lat="26.789372731000185" lon="-80.967728951945901" />
      <trkpt lat="26.789552355185151" lon="-80.966522712260485" />
      <trkpt lat="26.789732063189149" lon="-80.96542602404952" />
      <trkpt lat="26.790001541376114" lon="-80.964219700545073" />
      <trkpt lat="26.790091395378113" lon="-80.96312309615314" />
      <trkpt lat="26.790360873565078" lon="-80.961807137355208" />
      <trkpt lat="26.790630351752043" lon="-80.960710449144244" />
      <trkpt lat="26.790810059756041" lon="-80.959394490346313" />
      <trkpt lat="26.790989683941007" lon="-80.95829788595438" />
      <trkpt lat="26.791169308125973" lon="-80.957091562449932" />
      <trkpt lat="26.791169308125973" lon="-80.955556249246001" />
      <trkpt lat="26.791169308125973" lon="-80.954349925741553" />
      <trkpt lat="26.791259162127972" lon="-80.953253321349621" />
      <trkpt lat="26.791438870131969" lon="-80.952156716957688" />
      <trkpt lat="26.791528640314937" lon="-80.95095039345324" />
      <trkpt lat="26.791528640314937" lon="-80.949853705242276" />
      <trkpt lat="26.791528640314937" lon="-80.94864746555686" />
      <trkpt lat="26.791528640314937" lon="-80.947550777345896" />
      <trkpt lat="26.791528640314937" lon="-80.946344453841448" />
      <trkpt lat="26.791618494316936" lon="-80.945247849449515" />
      <trkpt lat="26.791798202320933" lon="-80.944151245057583" />
      <trkpt lat="26.791977826505899" lon="-80.943054556846619" />
      <trkpt lat="26.792157534509897" lon="-80.941957952454686" />
      <trkpt lat="26.792157534509897" lon="-80.940751628950238" />
      <trkpt lat="26.792337158694863" lon="-80.939654940739274" />
      <trkpt lat="26.792427012696862" lon="-80.938558336347342" />
      <trkpt lat="26.792696490883827" lon="-80.93724237754941" />
      <trkpt lat="26.792965969070792" lon="-80.936036054044962" />
      <trkpt lat="26.793325301259756" lon="-80.934939449653029" />
      <trkpt lat="26.793594779446721" lon="-80.933842761442065" />
      <trkpt lat="26.793864257633686" lon="-80.932746157050133" />
      <trkpt lat="26.794313443824649" lon="-80.931759187951684" />
      <trkpt lat="26.794672776013613" lon="-80.93066249974072" />
      <trkpt lat="26.795301586389542" lon="-80.929675530642271" />
      <trkpt lat="26.796020250767469" lon="-80.928798280656338" />
      <trkpt lat="26.796918539330363" lon="-80.928249936550856" />
      <trkpt lat="26.797816911712289" lon="-80.928030582144856" />
      <trkpt lat="26.798805054277182" lon="-80.928030582144856" />
      <trkpt lat="26.799793196842074" lon="-80.928469207137823" />
      <trkpt lat="26.800511861220002" lon="-80.929346540942788" />
      <trkpt lat="26.801230441778898" lon="-80.930333510041237" />
      <trkpt lat="26.80176948197186" lon="-80.931210843846202" />
      <trkpt lat="26.80230843834579" lon="-80.932197812944651" />
      <trkpt lat="26.802667770534754" lon="-80.933294501155615" />
      <trkpt lat="26.802757624536753" lon="-80.93472009524703" />
      <trkpt lat="26.802937248721719" lon="-80.935816699638963" />
      <trkpt lat="26.803027102723718" lon="-80.936913387849927" />
    </trkseg>
  </trk>

  <trk>
    <name>Track 073</name>
    <extensions>
      <gpxx:TrackExtension>
        <gpxx:DisplayColor>DarkGray</gpxx:DisplayColor>
      </gpxx:TrackExtension>
    </extensions>
    <trkseg>
      <trkpt lat="26.830309862270951" lon="-81.067257765680552" />
      <trkpt lat="26.830175165086985" lon="-81.1745092459023" />
      <trkpt lat="26.830175165086985" lon="-81.176647637039423" />
      <trkpt lat="26.830175165086985" lon="-81.178292585536838" />
      <trkpt lat="26.830040384083986" lon="-81.179937617853284" />
      <trkpt lat="26.82990568690002" lon="-81.181582566350698" />
      <trkpt lat="26.829636124894023" lon="-81.183227514848113" />
      <trkpt lat="26.829501427710056" lon="-81.184872463345528" />
      <trkpt lat="26.829231949523091" lon="-81.1866819486022" />
      <trkpt lat="26.828827690333128" lon="-81.188326897099614" />
      <trkpt lat="26.828288650140166" lon="-81.190136298537254" />
      <trkpt lat="26.827749693766236" lon="-81.191781330853701" />
      <trkpt lat="26.826806478202343" lon="-81.193097289651632" />
      <trkpt lat="26.826132740825415" lon="-81.19457770138979" />
      <trkpt lat="26.824785266071558" lon="-81.195893660187721" />
      <trkpt lat="26.823303010314703" lon="-81.196716176345944" />
      <trkpt lat="26.821955535560846" lon="-81.197209702804685" />
      <trkpt lat="26.82060806080699" lon="-81.19786768220365" />
      <trkpt lat="26.819260586053133" lon="-81.198196671903133" />
      <trkpt lat="26.817913111299276" lon="-81.198361124843359" />
      <trkpt lat="26.81656563654542" lon="-81.198690114542842" />
      <trkpt lat="26.815083464607596" lon="-81.198854651302099" />
      <trkpt lat="26.81373598985374" lon="-81.198854651302099" />
      <trkpt lat="26.812388515099883" lon="-81.199183641001582" />
      <trkpt lat="26.811041040346026" lon="-81.199183641001582" />
      <trkpt lat="26.80969356559217" lon="-81.198525661602616" />
      <trkpt lat="26.808615569025278" lon="-81.197538692504168" />
      <trkpt lat="26.80740287527442" lon="-81.196551723405719" />
      <trkpt lat="26.806324878707528" lon="-81.195564670488238" />
      <trkpt lat="26.805516360327601" lon="-81.194084258750081" />
      <trkpt lat="26.804842622950673" lon="-81.192603763192892" />
      <trkpt lat="26.804438447579741" lon="-81.190958814695477" />
      <trkpt lat="26.80389940738678" lon="-81.189313866198063" />
      <trkpt lat="26.803629929199815" lon="-81.187668917700648" />
      <trkpt lat="26.80336045101285" lon="-81.186023969203234" />
      <trkpt lat="26.80336045101285" lon="-81.184378936886787" />
      <trkpt lat="26.803225670009851" lon="-81.182240545749664" />
      <trkpt lat="26.802956191822886" lon="-81.18059559725225" />
      <trkpt lat="26.802956191822886" lon="-81.178950564935803" />
      <trkpt lat="26.802686713635921" lon="-81.177305616438389" />
      <trkpt lat="26.802686713635921" lon="-81.175331678241491" />
    </trkseg>
  </trk>

  <trk>
    <name>Track 074</name>
    <extensions>
      <gpxx:TrackExtension>
        <gpxx:DisplayColor>DarkGray</gpxx:DisplayColor>
      </gpxx:TrackExtension>
    </extensions>
    <trkseg>
      <trkpt lat="26.85641529969871" lon="-80.954911429435015" />
      <trkpt lat="26.856550080701709" lon="-80.9532664809376" />
      <trkpt lat="26.856550080701709" lon="-80.951128005981445" />
      <trkpt lat="26.856550080701709" lon="-80.949154067784548" />
      <trkpt lat="26.856550080701709" lon="-80.947344582527876" />
      <trkpt lat="26.85641529969871" lon="-80.945370644330978" />
      <trkpt lat="26.85587634332478" lon="-80.943232253193855" />
      <trkpt lat="26.855472084134817" lon="-80.941587220877409" />
      <trkpt lat="26.854798346757889" lon="-80.939777819439769" />
      <trkpt lat="26.854394087567925" lon="-80.938132870942354" />
      <trkpt lat="26.853450872004032" lon="-80.936652375385165" />
      <trkpt lat="26.852238178253174" lon="-80.935336416587234" />
      <trkpt lat="26.851025400683284" lon="-80.934184910729527" />
      <trkpt lat="26.849677925929427" lon="-80.933691468089819" />
      <trkpt lat="26.848465232178569" lon="-80.932868951931596" />
      <trkpt lat="26.846982976421714" lon="-80.932539962232113" />
      <trkpt lat="26.845635501667857" lon="-80.93221097253263" />
      <trkpt lat="26.844288026914001" lon="-80.931881982833147" />
      <trkpt lat="26.842805854976177" lon="-80.931881982833147" />
      <trkpt lat="26.841323599219322" lon="-80.931717529892921" />
      <trkpt lat="26.839976124465466" lon="-80.931881982833147" />
      <trkpt lat="26.838628649711609" lon="-80.932046519592404" />
      <trkpt lat="26.837281174957752" lon="-80.932539962232113" />
      <trkpt lat="26.835933700203896" lon="-80.933033488690853" />
      <trkpt lat="26.834721006453037" lon="-80.933855921030045" />
      <trkpt lat="26.833508312702179" lon="-80.934842890128493" />
      <trkpt lat="26.832699794322252" lon="-80.936158848926425" />
      <trkpt lat="26.831891275942326" lon="-80.937639344483614" />
      <trkpt lat="26.831352319568396" lon="-80.939284292981029" />
      <trkpt lat="26.830813363194466" lon="-80.940929241478443" />
      <trkpt lat="26.830409104004502" lon="-80.942574273794889" />
      <trkpt lat="26.830004844814539" lon="-80.944219222292304" />
      <trkpt lat="26.830004844814539" lon="-80.946028623729944" />
      <trkpt lat="26.829735366627574" lon="-80.947838108986616" />
      <trkpt lat="26.829735366627574" lon="-80.949812047183514" />
    </trkseg>
  </trk>

  <trk>
    <name>Track 075</name>
    <extensions>
      <gpxx:TrackExtension>
        <gpxx:DisplayColor>DarkGray</gpxx:DisplayColor>
      </gpxx:TrackExtension>
    </extensions>
    <trkseg>
      <trkpt lat="26.883907187730074" lon="-81.1212716717273" />
      <trkpt lat="26.884041968733072" lon="-81.122916704043746" />
      <trkpt lat="26.883907187730074" lon="-81.124561652541161" />
      <trkpt lat="26.883502928540111" lon="-81.126206601038575" />
      <trkpt lat="26.883368231356144" lon="-81.128016086295247" />
      <trkpt lat="26.882963972166181" lon="-81.129661034792662" />
      <trkpt lat="26.882425015792251" lon="-81.131305983290076" />
      <trkpt lat="26.881616497412324" lon="-81.132621942088008" />
      <trkpt lat="26.880673281848431" lon="-81.13393790088594" />
      <trkpt lat="26.879595285281539" lon="-81.135089406743646" />
      <trkpt lat="26.878382591530681" lon="-81.136405365541577" />
      <trkpt lat="26.876900335773826" lon="-81.137227797880769" />
      <trkpt lat="26.875418163836002" lon="-81.138050314038992" />
      <trkpt lat="26.873935908079147" lon="-81.138708293437958" />
      <trkpt lat="26.872318955138326" lon="-81.139201819896698" />
      <trkpt lat="26.870971480384469" lon="-81.139695262536407" />
      <trkpt lat="26.869624005630612" lon="-81.139695262536407" />
      <trkpt lat="26.868141749873757" lon="-81.139530809596181" />
      <trkpt lat="26.866794275119901" lon="-81.138543840497732" />
      <trkpt lat="26.865312103182077" lon="-81.137885777279735" />
      <trkpt lat="26.864099325612187" lon="-81.137063344940543" />
      <trkpt lat="26.862886631861329" lon="-81.136076375842094" />
      <trkpt lat="26.861539157107472" lon="-81.134924869984388" />
      <trkpt lat="26.860191682353616" lon="-81.13393790088594" />
      <trkpt lat="26.858978988602757" lon="-81.132457405328751" />
      <trkpt lat="26.858170470222831" lon="-81.130812456831336" />
      <trkpt lat="26.857362035661936" lon="-81.129332045093179" />
      <trkpt lat="26.856688298285007" lon="-81.127687096595764" />
      <trkpt lat="26.856284039095044" lon="-81.126042064279318" />
      <trkpt lat="26.856149258092046" lon="-81.124232662841678" />
      <trkpt lat="26.855879779905081" lon="-81.122587714344263" />
      <trkpt lat="26.856284039095044" lon="-81.097419792786241" />
    </trkseg>
  </trk>

  <trk>
    <name>Track 076</name>
    <extensions>
      <gpxx:TrackExtension>
        <gpxx:DisplayColor>DarkGray</gpxx:DisplayColor>
      </gpxx:TrackExtension>
    </extensions>
    <trkseg>
      <trkpt lat="26.909751445055008" lon="-80.973938098177314" />
      <trkpt lat="26.909661591053009" lon="-80.97284140996635" />
      <trkpt lat="26.909571820870042" lon="-80.971415815874934" />
      <trkpt lat="26.909392112866044" lon="-80.970319211483002" />
      <trkpt lat="26.909212488681078" lon="-80.969003168866038" />
      <trkpt lat="26.90903278067708" lon="-80.967687210068107" />
      <trkpt lat="26.908853156492114" lon="-80.966590605676174" />
      <trkpt lat="26.908583594486117" lon="-80.965384282171726" />
      <trkpt lat="26.90849382430315" lon="-80.964177958667278" />
      <trkpt lat="26.908314116299152" lon="-80.963081354275346" />
      <trkpt lat="26.908224346116185" lon="-80.961655676364899" />
      <trkpt lat="26.908134492114186" lon="-80.960559071972966" />
      <trkpt lat="26.908044638112187" lon="-80.959243113175035" />
      <trkpt lat="26.907954784110188" lon="-80.958146508783102" />
      <trkpt lat="26.907865013927221" lon="-80.957049820572138" />
      <trkpt lat="26.907775159925222" lon="-80.955733861774206" />
      <trkpt lat="26.907505681738257" lon="-80.954527538269758" />
      <trkpt lat="26.907415827736259" lon="-80.953430933877826" />
      <trkpt lat="26.907146349549294" lon="-80.952334245666862" />
      <trkpt lat="26.906697163358331" lon="-80.95101828686893" />
      <trkpt lat="26.906247977167368" lon="-80.949811963364482" />
      <trkpt lat="26.905619166791439" lon="-80.948167014867067" />
      <trkpt lat="26.905170064419508" lon="-80.947180045768619" />
      <trkpt lat="26.904720878228545" lon="-80.94619307667017" />
      <trkpt lat="26.903912359848619" lon="-80.945315742865205" />
      <trkpt lat="26.903193779289722" lon="-80.944438492879272" />
      <trkpt lat="26.902564885094762" lon="-80.943451523780823" />
      <trkpt lat="26.901666596531868" lon="-80.942683825269341" />
      <trkpt lat="26.900678453966975" lon="-80.941806491464376" />
      <trkpt lat="26.899690311402082" lon="-80.940819522365928" />
      <trkpt lat="26.89870216883719" lon="-80.940161542966962" />
      <trkpt lat="26.897983504459262" lon="-80.939284292981029" />
      <trkpt lat="26.896995361894369" lon="-80.938516594469547" />
      <trkpt lat="26.896007219329476" lon="-80.938077969476581" />
      <trkpt lat="26.894929222762585" lon="-80.937639260664582" />
      <trkpt lat="26.893941080197692" lon="-80.937419990077615" />
      <trkpt lat="26.892952937632799" lon="-80.937200635671616" />
      <trkpt lat="26.891964795067906" lon="-80.936981281265616" />
      <trkpt lat="26.890797028318048" lon="-80.936981281265616" />
      <trkpt lat="26.889898655936122" lon="-80.936981281265616" />
      <trkpt lat="26.889000367373228" lon="-80.937310270965099" />
      <trkpt lat="26.888102078810334" lon="-80.937748979777098" />
      <trkpt lat="26.887024082243443" lon="-80.938406959176064" />
      <trkpt lat="26.886395271867514" lon="-80.939284292981029" />
      <trkpt lat="26.885766461491585" lon="-80.940271262079477" />
      <trkpt lat="26.885137567296624" lon="-80.941258231177926" />
      <trkpt lat="26.884778318926692" lon="-80.942354835569859" />
      <trkpt lat="26.884418986737728" lon="-80.943451523780823" />
      <trkpt lat="26.884149424731731" lon="-80.944657763466239" />
      <trkpt lat="26.883879946544766" lon="-80.945864086970687" />
      <trkpt lat="26.883610468357801" lon="-80.946960775181651" />
      <trkpt lat="26.883520614355803" lon="-80.948057379573584" />
      <trkpt lat="26.883251136168838" lon="-80.949263703078032" />
      <trkpt lat="26.883251136168838" lon="-80.950689297169447" />
      <trkpt lat="26.883251136168838" lon="-80.951895620673895" />
      <trkpt lat="26.883251136168838" lon="-80.953101944178343" />
      <trkpt lat="26.883251136168838" lon="-80.954527538269758" />
      <trkpt lat="26.882981657981873" lon="-80.95584349706769" />
      <trkpt lat="26.882981657981873" lon="-80.956940185278654" />
      <trkpt lat="26.882891803979874" lon="-80.958036789670587" />
      <trkpt lat="26.882891803979874" lon="-80.959133477881551" />
    </trkseg>
  </trk>

  <trk>
    <name>Track 077</name>
    <extensions>
      <gpxx:TrackExtension>
        <gpxx:DisplayColor>DarkGray</gpxx:DisplayColor>
      </gpxx:TrackExtension>
    </extensions>
    <trkseg>
      <trkpt lat="26.936181932687759" lon="-81.122010787948966" />
      <trkpt lat="26.936181932687759" lon="-81.123217027634382" />
      <trkpt lat="26.936181932687759" lon="-81.12442335113883" />
      <trkpt lat="26.936181932687759" lon="-81.125520039349794" />
      <trkpt lat="26.93609207868576" lon="-81.126726279035211" />
      <trkpt lat="26.935553122311831" lon="-81.128042237833142" />
      <trkpt lat="26.935193790122867" lon="-81.129467915743589" />
      <trkpt lat="26.93492422811687" lon="-81.130674239248037" />
      <trkpt lat="26.934564979746938" lon="-81.13177084363997" />
      <trkpt lat="26.93438527174294" lon="-81.132867531850934" />
      <trkpt lat="26.934115793555975" lon="-81.134293125942349" />
      <trkpt lat="26.933756461367011" lon="-81.13582843914628" />
      <trkpt lat="26.933486983180046" lon="-81.137144397944212" />
      <trkpt lat="26.933127650991082" lon="-81.13835072144866" />
      <trkpt lat="26.932678464800119" lon="-81.139447325840592" />
      <trkpt lat="26.932049654424191" lon="-81.140324659645557" />
      <trkpt lat="26.931241136044264" lon="-81.141311628744006" />
      <trkpt lat="26.930432701483369" lon="-81.142079243436456" />
      <trkpt lat="26.929624183103442" lon="-81.142737222835422" />
      <trkpt lat="26.928725894540548" lon="-81.14317593164742" />
      <trkpt lat="26.927827605977654" lon="-81.143614556640387" />
      <trkpt lat="26.926929233595729" lon="-81.144053265452385" />
      <trkpt lat="26.926030945032835" lon="-81.144382255151868" />
      <trkpt lat="26.925042802467942" lon="-81.144601525738835" />
      <trkpt lat="26.924144513905048" lon="-81.144930515438318" />
      <trkpt lat="26.923246141523123" lon="-81.145040234550834" />
      <trkpt lat="26.92225799895823" lon="-81.145259505137801" />
      <trkpt lat="26.921359710395336" lon="-81.145369224250317" />
      <trkpt lat="26.920461421832442" lon="-81.145369224250317" />
      <trkpt lat="26.919563049450517" lon="-81.145259505137801" />
      <trkpt lat="26.918574906885624" lon="-81.144711244851351" />
      <trkpt lat="26.917586764320731" lon="-81.144162900745869" />
      <trkpt lat="26.916688475757837" lon="-81.143724275752902" />
      <trkpt lat="26.915879957377911" lon="-81.14317593164742" />
      <trkpt lat="26.915161292999983" lon="-81.142298597842455" />
      <trkpt lat="26.914442712441087" lon="-81.141530983150005" />
      <trkpt lat="26.913813818246126" lon="-81.14065364934504" />
      <trkpt lat="26.913185007870197" lon="-81.139776315540075" />
      <trkpt lat="26.912646051496267" lon="-81.138789346441627" />
      <trkpt lat="26.912196865305305" lon="-81.137802377343178" />
      <trkpt lat="26.91192738711834" lon="-81.136705772951245" />
      <trkpt lat="26.911657908931375" lon="-81.135609084740281" />
      <trkpt lat="26.91138843074441" lon="-81.134402761235833" />
      <trkpt lat="26.911118952557445" lon="-81.133306156843901" />
      <trkpt lat="26.910759620368481" lon="-81.132209468632936" />
      <trkpt lat="26.910490058362484" lon="-81.131112864241004" />
      <trkpt lat="26.910220580175519" lon="-81.130016259849072" />
      <trkpt lat="26.909861247986555" lon="-81.128919571638107" />
      <trkpt lat="26.909681623801589" lon="-81.127713248133659" />
      <trkpt lat="26.909681623801589" lon="-81.126397289335728" />
      <trkpt lat="26.90959176979959" lon="-81.125300684943795" />
      <trkpt lat="26.909412145614624" lon="-81.124203996732831" />
      <trkpt lat="26.909322291612625" lon="-81.123107392340899" />
      <trkpt lat="26.909142583608627" lon="-81.122010787948966" />
    </trkseg>
  </trk>

  <trk>
    <name>Track 078</name>
    <extensions>
      <gpxx:TrackExtension>
        <gpxx:DisplayColor>DarkGray</gpxx:DisplayColor>
      </gpxx:TrackExtension>
    </extensions>
    <trkseg>
      <trkpt lat="26.96453413926065" lon="-81.001273076981306" />
      <trkpt lat="26.964264661073685" lon="-80.999628128483891" />
      <trkpt lat="26.963995099067688" lon="-80.997654190286994" />
      <trkpt lat="26.963590923696756" lon="-80.995844705030322" />
      <trkpt lat="26.963456142693758" lon="-80.994199756532907" />
      <trkpt lat="26.963051883503795" lon="-80.992554808035493" />
      <trkpt lat="26.962647624313831" lon="-80.990745322778821" />
      <trkpt lat="26.961973886936903" lon="-80.989264911040664" />
      <trkpt lat="26.961434930562973" lon="-80.987290889024734" />
      <trkpt lat="26.960761193186045" lon="-80.98564594052732" />
      <trkpt lat="26.959817977622151" lon="-80.984165528789163" />
      <trkpt lat="26.959009459242225" lon="-80.982849569991231" />
      <trkpt lat="26.957931546494365" lon="-80.981533527374268" />
      <trkpt lat="26.956853549927473" lon="-80.98005311563611" />
      <trkpt lat="26.955775553360581" lon="-80.979066146537662" />
      <trkpt lat="26.954562859609723" lon="-80.978243630379438" />
      <trkpt lat="26.953215384855866" lon="-80.977421198040247" />
      <trkpt lat="26.95186791010201" lon="-80.976598681882024" />
      <trkpt lat="26.950520435348153" lon="-80.976105155423284" />
      <trkpt lat="26.949038179591298" lon="-80.975611712783575" />
      <trkpt lat="26.947690704837441" lon="-80.975447176024318" />
      <trkpt lat="26.94607375189662" lon="-80.975447176024318" />
      <trkpt lat="26.944726277142763" lon="-80.975447176024318" />
      <trkpt lat="26.943244021385908" lon="-80.975447176024318" />
      <trkpt lat="26.941761849448085" lon="-80.976105155423284" />
      <trkpt lat="26.940549071878195" lon="-80.977092208340764" />
      <trkpt lat="26.939336378127337" lon="-80.978243630379438" />
      <trkpt lat="26.938393162563443" lon="-80.979724125936627" />
      <trkpt lat="26.93798890337348" lon="-80.981533527374268" />
      <trkpt lat="26.937719425186515" lon="-80.983178559690714" />
      <trkpt lat="26.937584644183517" lon="-80.984987961128354" />
      <trkpt lat="26.93744994699955" lon="-80.986632909625769" />
      <trkpt lat="26.937315165996552" lon="-80.988277858123183" />
      <trkpt lat="26.936641428619623" lon="-80.990087343379855" />
      <trkpt lat="26.936371950432658" lon="-80.99173229187727" />
      <trkpt lat="26.93623716942966" lon="-80.993377240374684" />
    </trkseg>
  </trk>

  <trk>
    <name>Track 079</name>
    <extensions>
      <gpxx:TrackExtension>
        <gpxx:DisplayColor>DarkGray</gpxx:DisplayColor>
      </gpxx:TrackExtension>
    </extensions>
    <trkseg>
      <trkpt lat="26.990450564771891" lon="-81.077708909288049" />
      <trkpt lat="26.990315867587924" lon="-81.117187924683094" />
      <trkpt lat="26.990046389400959" lon="-81.118832873180509" />
      <trkpt lat="26.989776827394962" lon="-81.120642358437181" />
      <trkpt lat="26.989372652024031" lon="-81.122287306934595" />
      <trkpt lat="26.988968392834067" lon="-81.12393225543201" />
      <trkpt lat="26.988564133644104" lon="-81.125577203929424" />
      <trkpt lat="26.988159874454141" lon="-81.127551142126322" />
      <trkpt lat="26.987486137077212" lon="-81.129031637683511" />
      <trkpt lat="26.986677702516317" lon="-81.1305121332407" />
      <trkpt lat="26.985869184136391" lon="-81.131828092038631" />
      <trkpt lat="26.984925968572497" lon="-81.133144050836563" />
      <trkpt lat="26.983847972005606" lon="-81.134131019935012" />
      <trkpt lat="26.982635278254747" lon="-81.135117989033461" />
      <trkpt lat="26.981287803500891" lon="-81.136104958131909" />
      <trkpt lat="26.979805547744036" lon="-81.13659848459065" />
      <trkpt lat="26.978458072990179" lon="-81.136762937530875" />
      <trkpt lat="26.977110598236322" lon="-81.136927474290133" />
      <trkpt lat="26.975628426298499" lon="-81.136927474290133" />
      <trkpt lat="26.974280951544642" lon="-81.13659848459065" />
      <trkpt lat="26.972798695787787" lon="-81.136104958131909" />
      <trkpt lat="26.971586002036929" lon="-81.135282525792718" />
      <trkpt lat="26.970373224467039" lon="-81.134295556694269" />
      <trkpt lat="26.969160530716181" lon="-81.133473040536046" />
      <trkpt lat="26.968082534149289" lon="-81.13232153467834" />
      <trkpt lat="26.967004537582397" lon="-81.131005575880408" />
      <trkpt lat="26.965791843831539" lon="-81.13001860678196" />
      <trkpt lat="26.964713847264647" lon="-81.128867184743285" />
      <trkpt lat="26.963905412703753" lon="-81.127551142126322" />
      <trkpt lat="26.963501153513789" lon="-81.125741740688682" />
      <trkpt lat="26.963366372510791" lon="-81.124096792191267" />
      <trkpt lat="26.963231675326824" lon="-81.122451843693852" />
      <trkpt lat="26.963096894323826" lon="-81.120806811377406" />
      <trkpt lat="26.963231675326824" lon="-81.119161862879992" />
    </trkseg>
  </trk>

  <trk>
    <name>Track 080</name>
    <extensions>
      <gpxx:TrackExtension>
        <gpxx:DisplayColor>DarkGray</gpxx:DisplayColor>
      </gpxx:TrackExtension>
    </extensions>
    <trkseg>
      <trkpt lat="27.016861187294126" lon="-80.954007860273123" />
      <trkpt lat="27.016861187294126" lon="-80.952362911775708" />
      <trkpt lat="27.016861187294126" lon="-80.950717879459262" />
      <trkpt lat="27.016726406291127" lon="-80.949072930961847" />
      <trkpt lat="27.016187449917197" lon="-80.947263529524207" />
      <trkpt lat="27.015783190727234" lon="-80.945454044267535" />
      <trkpt lat="27.015244150534272" lon="-80.943480106070638" />
      <trkpt lat="27.014705194160342" lon="-80.941835157573223" />
      <trkpt lat="27.014031456783414" lon="-80.940354662016034" />
      <trkpt lat="27.013357719406486" lon="-80.938874166458845" />
      <trkpt lat="27.012279722839594" lon="-80.937722744420171" />
      <trkpt lat="27.011067029088736" lon="-80.936900228261948" />
      <trkpt lat="27.009854335337877" lon="-80.936077795922756" />
      <trkpt lat="27.008372079581022" lon="-80.93541981652379" />
      <trkpt lat="27.006889823824167" lon="-80.935090826824307" />
      <trkpt lat="27.005542349070311" lon="-80.93492629006505" />
      <trkpt lat="27.003925396129489" lon="-80.93492629006505" />
      <trkpt lat="27.002577921375632" lon="-80.935090826824307" />
      <trkpt lat="27.001230446621776" lon="-80.935748806223273" />
      <trkpt lat="26.999882971867919" lon="-80.936406785622239" />
      <trkpt lat="26.998535497114062" lon="-80.936900228261948" />
      <trkpt lat="26.997322803363204" lon="-80.937887197360396" />
      <trkpt lat="26.996110109612346" lon="-80.939038703218102" />
      <trkpt lat="26.995032113045454" lon="-80.940025672316551" />
      <trkpt lat="26.994223594665527" lon="-80.94150616787374" />
      <trkpt lat="26.993415160104632" lon="-80.942986579611897" />
      <trkpt lat="26.992606641724706" lon="-80.944467075169086" />
      <trkpt lat="26.991932904347777" lon="-80.945947570726275" />
      <trkpt lat="26.991528645157814" lon="-80.94759251922369" />
      <trkpt lat="26.991259166970849" lon="-80.949237467721105" />
      <trkpt lat="26.990854907780886" lon="-80.950882416218519" />
      <trkpt lat="26.990854907780886" lon="-80.952691901475191" />
      <trkpt lat="26.990450648590922" lon="-80.954336849972606" />
      <trkpt lat="26.990181170403957" lon="-80.95598179847002" />
      <trkpt lat="26.990046473219991" lon="-80.957791283726692" />
      <trkpt lat="26.990046473219991" lon="-80.959600685164332" />
      <trkpt lat="26.989911692216992" lon="-80.961410170421004" />
      <trkpt lat="26.989911692216992" lon="-80.963384108617902" />
      <trkpt lat="26.990046473219991" lon="-80.965029057115316" />
      <trkpt lat="26.990181170403957" lon="-80.966674005612731" />
      <trkpt lat="26.990315951406956" lon="-80.968319037929177" />
    </trkseg>
  </trk>

  <trk>
    <name>Track 081</name>
    <extensions>
      <gpxx:TrackExtension>
        <gpxx:DisplayColor>DarkGray</gpxx:DisplayColor>
      </gpxx:TrackExtension>
    </extensions>
    <trkseg>
      <trkpt lat="27.043654778972268" lon="-80.987415695562959" />
      <trkpt lat="27.043430311605334" lon="-81.016312222927809" />
      <trkpt lat="27.043430311605334" lon="-81.017518546432257" />
      <trkpt lat="27.042891271412373" lon="-81.01839579641819" />
      <trkpt lat="27.042711647227407" lon="-81.019492484629154" />
      <trkpt lat="27.042531939223409" lon="-81.020808443427086" />
      <trkpt lat="27.042262461036444" lon="-81.022014766931534" />
      <trkpt lat="27.041992982849479" lon="-81.023221090435982" />
      <trkpt lat="27.041454026475549" lon="-81.024427330121398" />
      <trkpt lat="27.041004840284586" lon="-81.025633653625846" />
      <trkpt lat="27.040465883910656" lon="-81.026510987430811" />
      <trkpt lat="27.039926843717694" lon="-81.027388321235776" />
      <trkpt lat="27.0390285551548" lon="-81.027936581522226" />
      <trkpt lat="27.038309890776873" lon="-81.028704280033708" />
      <trkpt lat="27.037501372396946" lon="-81.029362259432673" />
      <trkpt lat="27.03678279183805" lon="-81.030129874125123" />
      <trkpt lat="27.036064127460122" lon="-81.030787853524089" />
      <trkpt lat="27.035345463082194" lon="-81.031445832923055" />
      <trkpt lat="27.034447090700269" lon="-81.031665187329054" />
      <trkpt lat="27.033458948135376" lon="-81.031665187329054" />
      <trkpt lat="27.032470805570483" lon="-81.031665187329054" />
      <trkpt lat="27.03148266300559" lon="-81.031665187329054" />
      <trkpt lat="27.030584374442697" lon="-81.031445832923055" />
      <trkpt lat="27.029686085879803" lon="-81.031336197629571" />
      <trkpt lat="27.028787713497877" lon="-81.031226562336087" />
      <trkpt lat="27.027889424934983" lon="-81.031007207930088" />
      <trkpt lat="27.026991136372089" lon="-81.030787853524089" />
      <trkpt lat="27.026182617992163" lon="-81.030129874125123" />
      <trkpt lat="27.025374183431268" lon="-81.029581530019641" />
      <trkpt lat="27.02465551905334" lon="-81.028704280033708" />
      <trkpt lat="27.023847000673413" lon="-81.028155935928226" />
      <trkpt lat="27.022948712110519" lon="-81.027826946228743" />
      <trkpt lat="27.022050339728594" lon="-81.027388321235776" />
      <trkpt lat="27.0211520511657" lon="-81.02673034183681" />
      <trkpt lat="27.020433386787772" lon="-81.026072278618813" />
      <trkpt lat="27.019804576411843" lon="-81.02497567422688" />
      <trkpt lat="27.019265620037913" lon="-81.023879069834948" />
      <trkpt lat="27.018906287848949" lon="-81.022782381623983" />
      <trkpt lat="27.018367247655988" lon="-81.021685777232051" />
      <trkpt lat="27.017918145284057" lon="-81.020698808133602" />
      <trkpt lat="27.017379105091095" lon="-81.019711839035153" />
      <trkpt lat="27.017019772902131" lon="-81.018615150824189" />
      <trkpt lat="27.016750294715166" lon="-81.017518546432257" />
      <trkpt lat="27.016480816528201" lon="-81.016421858221292" />
      <trkpt lat="27.016480816528201" lon="-81.015215618535876" />
    </trkseg>
  </trk>

  <trk>
    <name>Track 082</name>
    <extensions>
      <gpxx:TrackExtension>
        <gpxx:DisplayColor>DarkGray</gpxx:DisplayColor>
      </gpxx:TrackExtension>
    </extensions>
    <trkseg>
      <trkpt lat="27.069227211177349" lon="-80.879396097734571" />
      <trkpt lat="27.069227211177349" lon="-80.878080055117607" />
      <trkpt lat="27.069227211177349" lon="-80.876654461026192" />
      <trkpt lat="27.069227211177349" lon="-80.87533850222826" />
      <trkpt lat="27.069227211177349" lon="-80.874241814017296" />
      <trkpt lat="27.069047503173351" lon="-80.873145209625363" />
      <trkpt lat="27.068867878988385" lon="-80.872048605233431" />
      <trkpt lat="27.06859840080142" lon="-80.870951917022467" />
      <trkpt lat="27.068239068612456" lon="-80.869635958224535" />
      <trkpt lat="27.067789882421494" lon="-80.868319999426603" />
      <trkpt lat="27.067250926047564" lon="-80.867223395034671" />
      <trkpt lat="27.066711885854602" lon="-80.866346061229706" />
      <trkpt lat="27.065903451293707" lon="-80.865468727424741" />
      <trkpt lat="27.065005078911781" lon="-80.864810748025775" />
      <trkpt lat="27.064196644350886" lon="-80.864262403920293" />
      <trkpt lat="27.063298271968961" lon="-80.863823778927326" />
      <trkpt lat="27.062399983406067" lon="-80.863604424521327" />
      <trkpt lat="27.061501694843173" lon="-80.86338515393436" />
      <trkpt lat="27.060423698276281" lon="-80.86316579952836" />
      <trkpt lat="27.05934570170939" lon="-80.86316579952836" />
      <trkpt lat="27.058267705142498" lon="-80.863056080415845" />
      <trkpt lat="27.057099938392639" lon="-80.863056080415845" />
      <trkpt lat="27.056201649829745" lon="-80.863056080415845" />
      <trkpt lat="27.05530327744782" lon="-80.863056080415845" />
      <trkpt lat="27.05422536469996" lon="-80.86338515393436" />
      <trkpt lat="27.053326992318034" lon="-80.863494789227843" />
      <trkpt lat="27.052338849753141" lon="-80.863714143633842" />
      <trkpt lat="27.051350707188249" lon="-80.864043133333325" />
      <trkpt lat="27.050272710621357" lon="-80.864481758326292" />
      <trkpt lat="27.049284568056464" lon="-80.864810748025775" />
      <trkpt lat="27.048206571489573" lon="-80.865578362718225" />
      <trkpt lat="27.04721842892468" lon="-80.866126706823707" />
      <trkpt lat="27.046409994363785" lon="-80.866784686222672" />
      <trkpt lat="27.045691329985857" lon="-80.867442665621638" />
      <trkpt lat="27.044972665607929" lon="-80.86821036413312" />
      <trkpt lat="27.044254001230001" lon="-80.868977978825569" />
      <trkpt lat="27.043625190854073" lon="-80.869964947924018" />
      <trkpt lat="27.043355712667108" lon="-80.871171271428466" />
      <trkpt lat="27.042996380478144" lon="-80.872377594932914" />
      <trkpt lat="27.042906526476145" lon="-80.87358383461833" />
      <trkpt lat="27.04263704828918" lon="-80.874680522829294" />
      <trkpt lat="27.043265858665109" lon="-80.920191071927547" />
    </trkseg>
  </trk>

  <trk>
    <name>Track 083</name>
    <extensions>
      <gpxx:TrackExtension>
        <gpxx:DisplayColor>DarkGray</gpxx:DisplayColor>
      </gpxx:TrackExtension>
    </extensions>
    <trkseg>
      <trkpt lat="27.096636621281505" lon="-80.932649848982692" />
      <trkpt lat="27.096501840278506" lon="-80.960943130776286" />
      <trkpt lat="27.096501840278506" lon="-80.962588079273701" />
      <trkpt lat="27.096501840278506" lon="-80.964233111590147" />
      <trkpt lat="27.096501840278506" lon="-80.966042513027787" />
      <trkpt lat="27.096501840278506" lon="-80.968180987983942" />
      <trkpt lat="27.096232362091541" lon="-80.969825936481357" />
      <trkpt lat="27.095828102901578" lon="-80.971470884978771" />
      <trkpt lat="27.095828102901578" lon="-80.973115833476186" />
      <trkpt lat="27.095423927530646" lon="-80.974925318732858" />
      <trkpt lat="27.09515436552465" lon="-80.976570267230272" />
      <trkpt lat="27.09461540915072" lon="-80.97854420542717" />
      <trkpt lat="27.093941671773791" lon="-80.980189153924584" />
      <trkpt lat="27.093267934396863" lon="-80.981834186241031" />
      <trkpt lat="27.092594197019935" lon="-80.983314597979188" />
      <trkpt lat="27.091650981456041" lon="-80.98463055677712" />
      <trkpt lat="27.090438203886151" lon="-80.985782062634826" />
      <trkpt lat="27.089090729132295" lon="-80.986440042033792" />
      <trkpt lat="27.08774333819747" lon="-80.987098021432757" />
      <trkpt lat="27.086261082440615" lon="-80.987591547891498" />
      <trkpt lat="27.084913607686758" lon="-80.988084990531206" />
      <trkpt lat="27.083431351929903" lon="-80.988249527290463" />
      <trkpt lat="27.08194917999208" lon="-80.988249527290463" />
      <trkpt lat="27.080601705238223" lon="-80.988249527290463" />
      <trkpt lat="27.079254230484366" lon="-80.988084990531206" />
      <trkpt lat="27.07790675573051" lon="-80.987591547891498" />
      <trkpt lat="27.076559280976653" lon="-80.987262558192015" />
      <trkpt lat="27.075211806222796" lon="-80.986769031733274" />
      <trkpt lat="27.073999112471938" lon="-80.985946515575051" />
      <trkpt lat="27.072786334902048" lon="-80.98512408323586" />
      <trkpt lat="27.071708338335156" lon="-80.983808124437928" />
      <trkpt lat="27.071034600958228" lon="-80.982327628880739" />
      <trkpt lat="27.0703608635813" lon="-80.980682680383325" />
      <trkpt lat="27.069687126204371" lon="-80.979202184826136" />
      <trkpt lat="27.069417648017406" lon="-80.977557236328721" />
      <trkpt lat="27.069148169830441" lon="-80.975912287831306" />
      <trkpt lat="27.069148169830441" lon="-80.974102802574635" />
      <trkpt lat="27.069148169830441" lon="-80.972128864377737" />
      <trkpt lat="27.069013388827443" lon="-80.970483915880322" />
      <trkpt lat="27.06928295083344" lon="-80.962588079273701" />
    </trkseg>
  </trk>

  <trk>
    <name>Track 084</name>
    <extensions>
      <gpxx:TrackExtension>
        <gpxx:DisplayColor>DarkGray</gpxx:DisplayColor>
      </gpxx:TrackExtension>
    </extensions>
    <trkseg>
      <trkpt lat="27.123618638142943" lon="-80.843383250758052" />
      <trkpt lat="27.123483857139945" lon="-80.823150258511305" />
      <trkpt lat="27.122675338760018" lon="-80.82150531001389" />
      <trkpt lat="27.12200160138309" lon="-80.820024814456701" />
      <trkpt lat="27.121193166822195" lon="-80.818544402718544" />
      <trkpt lat="27.120249951258302" lon="-80.817228443920612" />
      <trkpt lat="27.11917195469141" lon="-80.815912401303649" />
      <trkpt lat="27.118093958124518" lon="-80.814760979264975" />
      <trkpt lat="27.11688126437366" lon="-80.813445020467043" />
      <trkpt lat="27.115803267806768" lon="-80.812458051368594" />
      <trkpt lat="27.114725271239877" lon="-80.811471082270145" />
      <trkpt lat="27.11337779648602" lon="-80.810813019052148" />
      <trkpt lat="27.112030321732163" lon="-80.810155039653182" />
      <trkpt lat="27.110413368791342" lon="-80.809497060254216" />
      <trkpt lat="27.108931113034487" lon="-80.809003617614508" />
      <trkpt lat="27.10758363828063" lon="-80.808674627915025" />
      <trkpt lat="27.106101466342807" lon="-80.808674627915025" />
      <trkpt lat="27.10475399158895" lon="-80.808674627915025" />
      <trkpt lat="27.103406516835093" lon="-80.809003617614508" />
      <trkpt lat="27.102059042081237" lon="-80.809661597013474" />
      <trkpt lat="27.100846264511347" lon="-80.810484029352665" />
      <trkpt lat="27.099768351763487" lon="-80.811800071969628" />
      <trkpt lat="27.098825136199594" lon="-80.81311603076756" />
      <trkpt lat="27.098016617819667" lon="-80.814431989565492" />
      <trkpt lat="27.097342880442739" lon="-80.816076938062906" />
      <trkpt lat="27.09666914306581" lon="-80.817557433620095" />
      <trkpt lat="27.09613018669188" lon="-80.81920238211751" />
      <trkpt lat="27.095860624685884" lon="-80.82101178355515" />
      <trkpt lat="27.095860624685884" lon="-80.822656815871596" />
      <trkpt lat="27.095591146498919" lon="-80.824301764369011" />
      <trkpt lat="27.095725927501917" lon="-80.825946712866426" />
    </trkseg>
  </trk>

  <trk>
    <name>Track 085</name>
    <extensions>
      <gpxx:TrackExtension>
        <gpxx:DisplayColor>DarkGray</gpxx:DisplayColor>
      </gpxx:TrackExtension>
    </extensions>
    <trkseg>
      <trkpt lat="27.177020581439137" lon="-80.847054440528154" />
      <trkpt lat="27.17684087343514" lon="-80.848151044920087" />
      <trkpt lat="27.176571395248175" lon="-80.849247733131051" />
      <trkpt lat="27.17630191706121" lon="-80.850454056635499" />
      <trkpt lat="27.175942584872246" lon="-80.851660296320915" />
      <trkpt lat="27.175493398681283" lon="-80.852647265419364" />
      <trkpt lat="27.174864588305354" lon="-80.853524599224329" />
      <trkpt lat="27.13992009870708" lon="-80.873154513537884" />
      <trkpt lat="27.138033667579293" lon="-80.87688303552568" />
      <trkpt lat="27.137764189392328" lon="-80.878089359030128" />
      <trkpt lat="27.137315003201365" lon="-80.879295682534575" />
      <trkpt lat="27.136865900829434" lon="-80.880392286926508" />
      <trkpt lat="27.136506568640471" lon="-80.881598610430956" />
      <trkpt lat="27.136057382449508" lon="-80.882695214822888" />
      <trkpt lat="27.135698050260544" lon="-80.883901538327336" />
      <trkpt lat="27.135248864069581" lon="-80.885107861831784" />
      <trkpt lat="27.13479976169765" lon="-80.886204466223717" />
      <trkpt lat="27.134350575506687" lon="-80.887410789728165" />
      <trkpt lat="27.133991243317723" lon="-80.888507477939129" />
      <trkpt lat="27.133631911128759" lon="-80.889604082331061" />
      <trkpt lat="27.133182808756828" lon="-80.89059105142951" />
      <trkpt lat="27.132643768563867" lon="-80.891468385234475" />
      <trkpt lat="27.132194666191936" lon="-80.892455354332924" />
      <trkpt lat="27.131835334002972" lon="-80.893551958724856" />
      <trkpt lat="27.131386147812009" lon="-80.894539011642337" />
      <trkpt lat="27.130847191438079" lon="-80.895525980740786" />
      <trkpt lat="27.130308151245117" lon="-80.896403230726719" />
      <trkpt lat="27.129679340869188" lon="-80.897280564531684" />
      <trkpt lat="27.128870822489262" lon="-80.89793854393065" />
      <trkpt lat="27.127972533926368" lon="-80.898267533630133" />
      <trkpt lat="27.126984391361475" lon="-80.898267533630133" />
      <trkpt lat="27.125906394794583" lon="-80.898267533630133" />
      <trkpt lat="27.125008106231689" lon="-80.898048179224133" />
      <trkpt lat="27.124199587851763" lon="-80.897390199825168" />
      <trkpt lat="27.123570777475834" lon="-80.896403230726719" />
      <trkpt lat="27.123121675103903" lon="-80.895306626334786" />
      <trkpt lat="27.122762342914939" lon="-80.894209938123822" />
      <trkpt lat="27.122582634910941" lon="-80.89311333373189" />
      <trkpt lat="27.122403010725975" lon="-80.892016729339957" />
      <trkpt lat="27.122403010725975" lon="-80.890810405835509" />
      <trkpt lat="27.122582634910941" lon="-80.889713717624545" />
      <trkpt lat="27.122852113097906" lon="-80.888617113232613" />
      <trkpt lat="27.12267248891294" lon="-80.889055738225579" />
      <trkpt lat="27.123481007292867" lon="-80.887739779427648" />
    </trkseg>
  </trk>

  <trk>
    <name>Transect1</name>
    <extensions>
      <gpxx:TrackExtension>
        <gpxx:DisplayColor>DarkGray</gpxx:DisplayColor>
      </gpxx:TrackExtension>
    </extensions>
    <trkseg>
      <trkpt lat="27.123281434178352" lon="-80.888203633949161">
        <ele>0</ele>
      </trkpt>
      <trkpt lat="27.123483186587691" lon="-80.841815248131752">
        <ele>0</ele>
      </trkpt>
    </trkseg>
  </trk>

  <trk>
    <name>Transect10</name>
    <extensions>
      <gpxx:TrackExtension>
        <gpxx:DisplayColor>DarkGray</gpxx:DisplayColor>
      </gpxx:TrackExtension>
    </extensions>
    <trkseg>
      <trkpt lat="26.882960367947817" lon="-80.958600640296936">
        <ele>0</ele>
      </trkpt>
      <trkpt lat="26.883636619895697" lon="-81.121826637536287">
        <ele>0</ele>
      </trkpt>
    </trkseg>
  </trk>

  <trk>
    <name>Transect11</name>
    <extensions>
      <gpxx:TrackExtension>
        <gpxx:DisplayColor>DarkGray</gpxx:DisplayColor>
      </gpxx:TrackExtension>
    </extensions>
    <trkseg>
      <trkpt lat="26.85642602853477" lon="-80.954750999808311">
        <ele>0</ele>
      </trkpt>
      <trkpt lat="26.856214720755816" lon="-81.100767189636827">
        <ele>0</ele>
      </trkpt>
    </trkseg>
  </trk>

  <trk>
    <name>Transect12</name>
    <extensions>
      <gpxx:TrackExtension>
        <gpxx:DisplayColor>DarkGray</gpxx:DisplayColor>
      </gpxx:TrackExtension>
    </extensions>
    <trkseg>
      <trkpt lat="26.830037031322718" lon="-80.948929097503424">
        <ele>0</ele>
      </trkpt>
      <trkpt lat="26.830160077661276" lon="-81.068342383950949">
        <ele>0</ele>
      </trkpt>
    </trkseg>
  </trk>

  <trk>
    <name>Transect13</name>
    <extensions>
      <gpxx:TrackExtension>
        <gpxx:DisplayColor>DarkGray</gpxx:DisplayColor>
      </gpxx:TrackExtension>
    </extensions>
    <trkseg>
      <trkpt lat="26.80302768945694" lon="-80.935760121792555">
        <ele>0</ele>
      </trkpt>
      <trkpt lat="26.803126009181142" lon="-80.977098243311048">
        <ele>0</ele>
      </trkpt>
    </trkseg>
  </trk>

  <trk>
    <name>Transect14</name>
    <extensions>
      <gpxx:TrackExtension>
        <gpxx:DisplayColor>DarkGray</gpxx:DisplayColor>
      </gpxx:TrackExtension>
    </extensions>
    <trkseg>
      <trkpt lat="26.776833152398467" lon="-80.942864790558815">
        <ele>0</ele>
      </trkpt>
      <trkpt lat="26.777209332212806" lon="-80.901282839477062">
        <ele>0</ele>
      </trkpt>
      <trkpt lat="26.775574190542102" lon="-80.691605675965548" />
      <trkpt lat="26.775574190542102" lon="-80.691605675965548" />
    </trkseg>
  </trk>

  <trk>
    <name>Transect2</name>
    <extensions>
      <gpxx:TrackExtension>
        <gpxx:DisplayColor>DarkGray</gpxx:DisplayColor>
      </gpxx:TrackExtension>
    </extensions>
    <trkseg>
      <trkpt lat="27.095841011032462" lon="-80.824443334713578">
        <ele>0</ele>
      </trkpt>
      <trkpt lat="27.096548695117235" lon="-80.932898288592696">
        <ele>0</ele>
      </trkpt>
    </trkseg>
  </trk>

  <trk>
    <name>Transect3</name>
    <extensions>
      <gpxx:TrackExtension>
        <gpxx:DisplayColor>DarkGray</gpxx:DisplayColor>
      </gpxx:TrackExtension>
    </extensions>
    <trkseg>
      <trkpt lat="27.069088658317924" lon="-80.879296688362956">
        <ele>0</ele>
      </trkpt>
      <trkpt lat="27.069375067949295" lon="-80.96448540687561">
        <ele>0</ele>
      </trkpt>
    </trkseg>
  </trk>

  <trk>
    <name>Transect4</name>
    <extensions>
      <gpxx:TrackExtension>
        <gpxx:DisplayColor>DarkGray</gpxx:DisplayColor>
      </gpxx:TrackExtension>
    </extensions>
    <trkseg>
      <trkpt lat="27.043133340775967" lon="-80.917494613677263">
        <ele>0</ele>
      </trkpt>
      <trkpt lat="27.043463671579957" lon="-80.987342186272144">
        <ele>0</ele>
      </trkpt>
    </trkseg>
  </trk>

  <trk>
    <name>Transect5</name>
    <extensions>
      <gpxx:TrackExtension>
        <gpxx:DisplayColor>DarkGray</gpxx:DisplayColor>
      </gpxx:TrackExtension>
    </extensions>
    <trkseg>
      <trkpt lat="27.016646526753902" lon="-80.952978981658816">
        <ele>0</ele>
      </trkpt>
      <trkpt lat="27.016733530908823" lon="-81.01493583060801">
        <ele>0</ele>
      </trkpt>
    </trkseg>
  </trk>

  <trk>
    <name>Transect6</name>
    <extensions>
      <gpxx:TrackExtension>
        <gpxx:DisplayColor>DarkGray</gpxx:DisplayColor>
      </gpxx:TrackExtension>
    </extensions>
    <trkseg>
      <trkpt lat="26.990162059664726" lon="-80.967686707153916">
        <ele>0</ele>
      </trkpt>
      <trkpt lat="26.990188714116812" lon="-81.078073941171169">
        <ele>0</ele>
      </trkpt>
    </trkseg>
  </trk>

  <trk>
    <name>Transect7</name>
    <extensions>
      <gpxx:TrackExtension>
        <gpxx:DisplayColor>DarkGray</gpxx:DisplayColor>
      </gpxx:TrackExtension>
    </extensions>
    <trkseg>
      <trkpt lat="26.964253429323435" lon="-81.000860100612044">
        <ele>0</ele>
      </trkpt>
      <trkpt lat="26.963656386360526" lon="-81.120854252949357">
        <ele>0</ele>
      </trkpt>
    </trkseg>
  </trk>

  <trk>
    <name>Transect8</name>
    <extensions>
      <gpxx:TrackExtension>
        <gpxx:DisplayColor>DarkGray</gpxx:DisplayColor>
      </gpxx:TrackExtension>
    </extensions>
    <trkseg>
      <trkpt lat="26.936685768887401" lon="-80.990537870675325">
        <ele>0</ele>
      </trkpt>
      <trkpt lat="26.936009768396616" lon="-81.122408090159297">
        <ele>0</ele>
      </trkpt>
    </trkseg>
  </trk>

  <trk>
    <name>Transect9</name>
    <extensions>
      <gpxx:TrackExtension>
        <gpxx:DisplayColor>DarkGray</gpxx:DisplayColor>
      </gpxx:TrackExtension>
    </extensions>
    <trkseg>
      <trkpt lat="26.909569725394249" lon="-80.973659232258797">
        <ele>0</ele>
      </trkpt>
      <trkpt lat="26.909220032393932" lon="-81.122357547283173">
        <ele>0</ele>
      </trkpt>
    </trkseg>
  </trk>

</gpx>