<?xml version="1.0" encoding="utf-8"?><gpx creator="Garmin Desktop App" version="1.1" xsi:schemaLocation="http://www.topografix.com/GPX/1/1 http://www.topografix.com/GPX/1/1/gpx.xsd http://www.garmin.com/xmlschemas/WaypointExtension/v1 http://www8.garmin.com/xmlschemas/WaypointExtensionv1.xsd http://www.garmin.com/xmlschemas/TrackPointExtension/v1 http://www.garmin.com/xmlschemas/TrackPointExtensionv1.xsd http://www.garmin.com/xmlschemas/GpxExtensions/v3 http://www8.garmin.com/xmlschemas/GpxExtensionsv3.xsd http://www.garmin.com/xmlschemas/ActivityExtension/v1 http://www8.garmin.com/xmlschemas/ActivityExtensionv1.xsd http://www.garmin.com/xmlschemas/AdventuresExtensions/v1 http://www8.garmin.com/xmlschemas/AdventuresExtensionv1.xsd http://www.garmin.com/xmlschemas/PressureExtension/v1 http://www.garmin.com/xmlschemas/PressureExtensionv1.xsd http://www.garmin.com/xmlschemas/TripExtensions/v1 http://www.garmin.com/xmlschemas/TripExtensionsv1.xsd http://www.garmin.com/xmlschemas/TripMetaDataExtensions/v1 http://www.garmin.com/xmlschemas/TripMetaDataExtensionsv1.xsd http://www.garmin.com/xmlschemas/ViaPointTransportationModeExtensions/v1 http://www.garmin.com/xmlschemas/ViaPointTransportationModeExtensionsv1.xsd http://www.garmin.com/xmlschemas/CreationTimeExtension/v1 http://www.garmin.com/xmlschemas/CreationTimeExtensionsv1.xsd http://www.garmin.com/xmlschemas/AccelerationExtension/v1 http://www.garmin.com/xmlschemas/AccelerationExtensionv1.xsd http://www.garmin.com/xmlschemas/PowerExtension/v1 http://www.garmin.com/xmlschemas/PowerExtensionv1.xsd http://www.garmin.com/xmlschemas/VideoExtension/v1 http://www.garmin.com/xmlschemas/VideoExtensionv1.xsd" xmlns="http://www.topografix.com/GPX/1/1" xmlns:xsi="http://www.w3.org/2001/XMLSchema-instance" xmlns:wptx1="http://www.garmin.com/xmlschemas/WaypointExtension/v1" xmlns:gpxtrx="http://www.garmin.com/xmlschemas/GpxExtensions/v3" xmlns:gpxtpx="http://www.garmin.com/xmlschemas/TrackPointExtension/v1" xmlns:gpxx="http://www.garmin.com/xmlschemas/GpxExtensions/v3" xmlns:trp="http://www.garmin.com/xmlschemas/TripExtensions/v1" xmlns:adv="http://www.garmin.com/xmlschemas/AdventuresExtensions/v1" xmlns:prs="http://www.garmin.com/xmlschemas/PressureExtension/v1" xmlns:tmd="http://www.garmin.com/xmlschemas/TripMetaDataExtensions/v1" xmlns:vptm="http://www.garmin.com/xmlschemas/ViaPointTransportationModeExtensions/v1" xmlns:ctx="http://www.garmin.com/xmlschemas/CreationTimeExtension/v1" xmlns:gpxacc="http://www.garmin.com/xmlschemas/AccelerationExtension/v1" xmlns:gpxpx="http://www.garmin.com/xmlschemas/PowerExtension/v1" xmlns:vidx1="http://www.garmin.com/xmlschemas/VideoExtension/v1">

  <metadata>
    <link href="http://www.garmin.com">
      <text>Garmin International</text>
    </link>
    <time>2025-08-27T20:19:59Z</time>
    <bounds maxlat="26.776251364499331" maxlon="-80.909254364669323" minlat="26.77589563652873" minlon="-80.909686451777816" />
  </metadata>

  <trk>
    <name>Track 059</name>
    <extensions>
      <gpxx:TrackExtension>
        <gpxx:DisplayColor>DarkGray</gpxx:DisplayColor>
      </gpxx:TrackExtension>
    </extensions>
    <trkseg>
      <trkpt lat="26.77589563652873" lon="-80.909368442371488" />
      <trkpt lat="26.77590636536479" lon="-80.909451758489013" />
      <trkpt lat="26.775960344821215" lon="-80.909548318013549" />
      <trkpt lat="26.775985490530729" lon="-80.909603135660291" />
      <trkpt lat="26.776069896295667" lon="-80.90961629524827" />
      <trkpt lat="26.776114823296666" lon="-80.909662311896682" />
      <trkpt lat="26.77617953158915" lon="-80.909686451777816" />
      <trkpt lat="26.776213645935059" lon="-80.909677734598517" />
      <trkpt lat="26.776251364499331" lon="-80.909598777070642" />
      <trkpt lat="26.776251364499331" lon="-80.909539517015219" />
      <trkpt lat="26.776206437498331" lon="-80.909462738782167" />
      <trkpt lat="26.776219010353088" lon="-80.909392582252622" />
      <trkpt lat="26.776233427226543" lon="-80.909317983314395" />
      <trkpt lat="26.776208197697997" lon="-80.909274145960808" />
      <trkpt lat="26.776172323152423" lon="-80.909254364669323" />
      <trkpt lat="26.77612379193306" lon="-80.909276325255632" />
      <trkpt lat="26.776086073368788" lon="-80.90932896360755" />
      <trkpt lat="26.776059083640575" lon="-80.909372800961137" />
      <trkpt lat="26.776059083640575" lon="-80.909372800961137" />
    </trkseg>
  </trk>

</gpx>