<?xml version="1.0" encoding="utf-8"?><gpx creator="Garmin Desktop App" version="1.1" xsi:schemaLocation="http://www.topografix.com/GPX/1/1 http://www.topografix.com/GPX/1/1/gpx.xsd http://www.garmin.com/xmlschemas/WaypointExtension/v1 http://www8.garmin.com/xmlschemas/WaypointExtensionv1.xsd http://www.garmin.com/xmlschemas/TrackPointExtension/v1 http://www.garmin.com/xmlschemas/TrackPointExtensionv1.xsd http://www.garmin.com/xmlschemas/GpxExtensions/v3 http://www8.garmin.com/xmlschemas/GpxExtensionsv3.xsd http://www.garmin.com/xmlschemas/ActivityExtension/v1 http://www8.garmin.com/xmlschemas/ActivityExtensionv1.xsd http://www.garmin.com/xmlschemas/AdventuresExtensions/v1 http://www8.garmin.com/xmlschemas/AdventuresExtensionv1.xsd http://www.garmin.com/xmlschemas/PressureExtension/v1 http://www.garmin.com/xmlschemas/PressureExtensionv1.xsd http://www.garmin.com/xmlschemas/TripExtensions/v1 http://www.garmin.com/xmlschemas/TripExtensionsv1.xsd http://www.garmin.com/xmlschemas/TripMetaDataExtensions/v1 http://www.garmin.com/xmlschemas/TripMetaDataExtensionsv1.xsd http://www.garmin.com/xmlschemas/ViaPointTransportationModeExtensions/v1 http://www.garmin.com/xmlschemas/ViaPointTransportationModeExtensionsv1.xsd http://www.garmin.com/xmlschemas/CreationTimeExtension/v1 http://www.garmin.com/xmlschemas/CreationTimeExtensionsv1.xsd http://www.garmin.com/xmlschemas/AccelerationExtension/v1 http://www.garmin.com/xmlschemas/AccelerationExtensionv1.xsd http://www.garmin.com/xmlschemas/PowerExtension/v1 http://www.garmin.com/xmlschemas/PowerExtensionv1.xsd http://www.garmin.com/xmlschemas/VideoExtension/v1 http://www.garmin.com/xmlschemas/VideoExtensionv1.xsd" xmlns="http://www.topografix.com/GPX/1/1" xmlns:xsi="http://www.w3.org/2001/XMLSchema-instance" xmlns:wptx1="http://www.garmin.com/xmlschemas/WaypointExtension/v1" xmlns:gpxtrx="http://www.garmin.com/xmlschemas/GpxExtensions/v3" xmlns:gpxtpx="http://www.garmin.com/xmlschemas/TrackPointExtension/v1" xmlns:gpxx="http://www.garmin.com/xmlschemas/GpxExtensions/v3" xmlns:trp="http://www.garmin.com/xmlschemas/TripExtensions/v1" xmlns:adv="http://www.garmin.com/xmlschemas/AdventuresExtensions/v1" xmlns:prs="http://www.garmin.com/xmlschemas/PressureExtension/v1" xmlns:tmd="http://www.garmin.com/xmlschemas/TripMetaDataExtensions/v1" xmlns:vptm="http://www.garmin.com/xmlschemas/ViaPointTransportationModeExtensions/v1" xmlns:ctx="http://www.garmin.com/xmlschemas/CreationTimeExtension/v1" xmlns:gpxacc="http://www.garmin.com/xmlschemas/AccelerationExtension/v1" xmlns:gpxpx="http://www.garmin.com/xmlschemas/PowerExtension/v1" xmlns:vidx1="http://www.garmin.com/xmlschemas/VideoExtension/v1">

  <metadata>
    <link href="http://www.garmin.com">
      <text>Garmin International</text>
    </link>
    <time>2026-09-17T17:41:33Z</time>
    <bounds maxlat="26.776462253183126" maxlon="-80.90864097699523" minlat="26.775966379791498" minlon="-80.909713441506028" />
  </metadata>

  <trk>
    <name>Track 114</name>
    <extensions>
      <gpxx:TrackExtension>
        <gpxx:DisplayColor>DarkGray</gpxx:DisplayColor>
      </gpxx:TrackExtension>
    </extensions>
    <trkseg>
      <trkpt lat="26.775978952646255" lon="-80.909364754334092" />
      <trkpt lat="26.775966379791498" lon="-80.909448070451617" />
      <trkpt lat="26.775995129719377" lon="-80.909568686038256" />
      <trkpt lat="26.776027400046587" lon="-80.909652085974813" />
      <trkpt lat="26.776072327047586" lon="-80.909680584445596" />
      <trkpt lat="26.776165785267949" lon="-80.909713441506028" />
      <trkpt lat="26.776194535195827" lon="-80.9096959233284" />
      <trkpt lat="26.776212472468615" lon="-80.909496350213885" />
      <trkpt lat="26.77622688934207" lon="-80.909410770982504" />
      <trkpt lat="26.7761873267591" lon="-80.909369112923741" />
      <trkpt lat="26.77607593126595" lon="-80.909351594746113" />
      <trkpt lat="26.776066962629557" lon="-80.909307757392526" />
      <trkpt lat="26.776135191321373" lon="-80.909169539809227" />
      <trkpt lat="26.776261003687978" lon="-80.908996285870671" />
      <trkpt lat="26.77635446190834" lon="-80.908882208168507" />
      <trkpt lat="26.776438867673278" lon="-80.908719934523106" />
      <trkpt lat="26.776462253183126" lon="-80.90864097699523" />
      <trkpt lat="26.776462253183126" lon="-80.908643156290054" />
      <trkpt lat="26.776462253183126" lon="-80.908643156290054" />
    </trkseg>
  </trk>

</gpx>